{
  "version": 0.6,
  "generator": "Overpass API 0.7.59.2 0994154d",
  "osm3s": {
    "timestamp_osm_base": "2023-03-21T15:25:13Z",
    "timestamp_areas_base": "2023-03-21T09:07:37Z",
    "copyright": "The data included in this document is from www.openstreetmap.org. The data is made available under ODbL."
  },
  "elements": [
    {
      "type": "node",
      "id": 2208739482,
      "lat": 27.3039736,
      "lon": 88.2458053,
      "tags": {
        "name": "Lotus Bakery",
        "opening_hours": "Mo-Su 07:00-17:00",
        "shop": "bakery"
      }
    },
    {
      "type": "node",
      "id": 2210253130,
      "lat": 27.2948094,
      "lon": 88.563875,
      "tags": {
        "name": "Jawaharlal Nehru Botanical Garden",
        "shop": "garden_centre"
      }
    },
    {
      "type": "node",
      "id": 4784459624,
      "lat": 27.3484857,
      "lon": 88.191654,
      "tags": {
        "name": "Kechupari Lake ticket office",
        "name:en": "Kechupari Lake ticket office",
        "shop": "ticket"
      }
    },
    {
      "type": "node",
      "id": 4868269924,
      "lat": 27.3296199,
      "lon": 88.614164,
      "tags": {
        "name": "Orange Tours and Treks",
        "name:en": "Orange Tours and Treks",
        "shop": "travel_agency"
      }
    },
    {
      "type": "node",
      "id": 4868270027,
      "lat": 27.3294922,
      "lon": 88.6140918,
      "tags": {
        "name": "Orange Tours and Treks",
        "name:en": "Orange Tours and Treks",
        "shop": "travel_agency"
      }
    },
    {
      "type": "node",
      "id": 4868280121,
      "lat": 27.3334866,
      "lon": 88.6147331,
      "tags": {
        "name": "Train Ticket Counter",
        "name:en": "Train Ticket Counter",
        "shop": "ticket"
      }
    },
    {
      "type": "node",
      "id": 4878155424,
      "lat": 27.3687028,
      "lon": 88.2222223,
      "tags": {
        "name": "red panda treks",
        "name:en": "red panda treks",
        "opening_hours": "Mo-Su 06:00-20:00",
        "shop": "travel_agency"
      }
    },
    {
      "type": "node",
      "id": 4878167021,
      "lat": 27.3693549,
      "lon": 88.2225297,
      "tags": {
        "name": "black yak treks",
        "name:en": "black yak treks",
        "shop": "travel_agency"
      }
    },
    {
      "type": "node",
      "id": 4907229224,
      "lat": 27.3262301,
      "lon": 88.6110497,
      "tags": {
        "name": "Lal Bazar",
        "name:en": "Lal Bazar",
        "shop": "supermarket"
      }
    },
    {
      "type": "node",
      "id": 4925330123,
      "lat": 27.3284998,
      "lon": 88.6122357,
      "tags": {
        "name": "Planet fashion",
        "name:en": "Planet fashion",
        "shop": "clothes"
      }
    },
    {
      "type": "node",
      "id": 4925330130,
      "lat": 27.3278476,
      "lon": 88.6128468,
      "tags": {
        "name": "Global trekkers",
        "name:en": "Global trekkers",
        "shop": "travel_agency"
      }
    },
    {
      "type": "node",
      "id": 4925330131,
      "lat": 27.2314457,
      "lon": 88.4960996,
      "tags": {
        "name": "Samsung",
        "name:en": "Samsung",
        "shop": "mobile_phone"
      }
    },
    {
      "type": "node",
      "id": 4925330132,
      "lat": 27.2318813,
      "lon": 88.4954265,
      "tags": {
        "name": "Economic trade center",
        "name:en": "Economic trade center",
        "shop": "department_store"
      }
    },
    {
      "type": "node",
      "id": 4925330133,
      "lat": 27.2315981,
      "lon": 88.4934016,
      "tags": {
        "name": "Vatika",
        "name:en": "Vatika",
        "shop": "clothes"
      }
    },
    {
      "type": "node",
      "id": 4925330134,
      "lat": 27.2448135,
      "lon": 88.456118,
      "tags": {
        "shop": "convenience"
      }
    },
    {
      "type": "node",
      "id": 4925330135,
      "lat": 27.2509475,
      "lon": 88.4328433,
      "tags": {
        "name": "Ravangla junction",
        "name:en": "Ravangla junction",
        "shop": "convenience"
      }
    },
    {
      "type": "node",
      "id": 4925330138,
      "lat": 27.3051377,
      "lon": 88.3651117,
      "tags": {
        "shop": "ticket"
      }
    },
    {
      "type": "node",
      "id": 4925330140,
      "lat": 27.3050716,
      "lon": 88.365368,
      "tags": {
        "name": "Ravangla booking ofc SNT",
        "name:en": "Ravangla booking ofc SNT",
        "shop": "ticket"
      }
    },
    {
      "type": "node",
      "id": 4925330143,
      "lat": 27.3052212,
      "lon": 88.365226,
      "tags": {
        "shop": "shoes"
      }
    },
    {
      "type": "node",
      "id": 4925330144,
      "lat": 27.3052544,
      "lon": 88.365211,
      "tags": {
        "name": "Tibetan",
        "name:en": "Tibetan",
        "shop": "gift"
      }
    },
    {
      "type": "node",
      "id": 4925330145,
      "lat": 27.3053303,
      "lon": 88.3652694,
      "tags": {
        "shop": "alcohol"
      }
    },
    {
      "type": "node",
      "id": 4925330222,
      "lat": 27.3303689,
      "lon": 88.6123421,
      "tags": {
        "name": "Tourist info ofc",
        "name:en": "Tourist info ofc",
        "shop": "travel_agency"
      }
    },
    {
      "type": "node",
      "id": 4925330234,
      "lat": 27.7070735,
      "lon": 88.7474478,
      "tags": {
        "shop": "convenience"
      }
    },
    {
      "type": "node",
      "id": 4925330243,
      "lat": 27.2318754,
      "lon": 88.4958952,
      "tags": {
        "name": "Nerolac",
        "name:en": "Nerolac",
        "shop": "hardware"
      }
    },
    {
      "type": "node",
      "id": 4925330246,
      "lat": 27.231442,
      "lon": 88.4943122,
      "tags": {
        "name": "Singtam Shopping Complex",
        "name:en": "Singtam Shopping Complex",
        "shop": "department_store"
      }
    },
    {
      "type": "node",
      "id": 4925330422,
      "lat": 27.3286032,
      "lon": 88.6122357,
      "tags": {
        "name": "Converse",
        "name:en": "Converse",
        "shop": "shoes"
      }
    },
    {
      "type": "node",
      "id": 4925330521,
      "lat": 27.343047,
      "lon": 88.6134854,
      "tags": {
        "name": "Ladakh grand depot",
        "name:en": "Ladakh grand depot",
        "shop": "department_store"
      }
    },
    {
      "type": "node",
      "id": 4925330622,
      "lat": 27.2718875,
      "lon": 88.3672495,
      "tags": {
        "name": "Vegetables",
        "name:en": "Vegetables",
        "shop": "beverages"
      }
    },
    {
      "type": "node",
      "id": 4925330623,
      "lat": 27.2716189,
      "lon": 88.3672419,
      "tags": {
        "name": "Flowers for sale",
        "name:en": "Flowers for sale",
        "shop": "florist"
      }
    },
    {
      "type": "node",
      "id": 5169240526,
      "lat": 27.3288959,
      "lon": 88.6136901,
      "tags": {
        "name": "Black Yak",
        "name:en": "Black Yak",
        "shop": "outdoor"
      }
    },
    {
      "type": "node",
      "id": 5169245622,
      "lat": 27.3296862,
      "lon": 88.6139439,
      "tags": {
        "shop": "outdoor"
      }
    },
    {
      "type": "node",
      "id": 5265404123,
      "lat": 27.3354691,
      "lon": 88.614707,
      "tags": {
        "internet_access": "wlan",
        "name": "Rachna Books",
        "opening_hours": "Mo-Sa 10:00-19:00",
        "shop": "books",
        "website": "https://rachnabooks.com/"
      }
    },
    {
      "type": "node",
      "id": 6489700086,
      "lat": 27.3702512,
      "lon": 88.2222657,
      "tags": {
        "name:he": "הבית שלנו",
        "shop": "books"
      }
    },
    {
      "type": "node",
      "id": 6880974385,
      "lat": 27.3673634,
      "lon": 88.6173883,
      "tags": {
        "name": "Hub Outdoor",
        "shop": "bicycle"
      }
    },
    {
      "type": "node",
      "id": 6881093686,
      "lat": 27.3335017,
      "lon": 88.6176734,
      "tags": {
        "name": "Hill Bike",
        "shop": "bicycle"
      }
    },
    {
      "type": "node",
      "id": 6901802449,
      "lat": 27.3314333,
      "lon": 88.6137141,
      "tags": {
        "shop": "newspaper"
      }
    },
    {
      "type": "node",
      "id": 6901806486,
      "lat": 27.3374753,
      "lon": 88.6106538,
      "tags": {
        "shop": "stationery"
      }
    },
    {
      "type": "node",
      "id": 6902087598,
      "lat": 27.2905932,
      "lon": 88.5615737,
      "tags": {
        "description": "Gift shop",
        "name": "Kelsang's souvenir and gift shop",
        "shop": "yes"
      }
    },
    {
      "type": "node",
      "id": 6907462186,
      "lat": 27.2866813,
      "lon": 88.2005091,
      "tags": {
        "name": "Khorong vilage",
        "shop": "wine"
      }
    },
    {
      "type": "node",
      "id": 6911235635,
      "lat": 27.3281818,
      "lon": 88.602551,
      "tags": {
        "shop": "stationery"
      }
    },
    {
      "type": "node",
      "id": 6911243728,
      "lat": 27.2940512,
      "lon": 88.5906763,
      "tags": {
        "shop": "beauty"
      }
    },
    {
      "type": "node",
      "id": 6911245931,
      "lat": 27.2939262,
      "lon": 88.5907155,
      "tags": {
        "shop": "electronics"
      }
    },
    {
      "type": "node",
      "id": 6927193233,
      "lat": 27.3289494,
      "lon": 88.6124253,
      "tags": {
        "name": "Bakers Cafe",
        "shop": "bakery"
      }
    },
    {
      "type": "node",
      "id": 6942375165,
      "lat": 27.3010899,
      "lon": 88.5814347,
      "tags": {
        "name": "Grocery",
        "shop": "farm"
      }
    },
    {
      "type": "node",
      "id": 7096720287,
      "lat": 27.3289333,
      "lon": 88.6122199,
      "tags": {
        "name": "Government-approved pre-paid taxi booth",
        "shop": "ticket"
      }
    },
    {
      "type": "node",
      "id": 7113629355,
      "lat": 27.3128851,
      "lon": 88.5994301,
      "tags": {
        "shop": "computer"
      }
    },
    {
      "type": "node",
      "id": 7113638228,
      "lat": 27.3091684,
      "lon": 88.5947034,
      "tags": {
        "shop": "beauty"
      }
    },
    {
      "type": "node",
      "id": 7113642766,
      "lat": 27.3270999,
      "lon": 88.611614,
      "tags": {
        "shop": "leather"
      }
    },
    {
      "type": "node",
      "id": 8058855211,
      "lat": 27.3337633,
      "lon": 88.6141827,
      "tags": {
        "shop": "stationery"
      }
    },
    {
      "type": "node",
      "id": 8169034064,
      "lat": 27.3102332,
      "lon": 88.5688049,
      "tags": {
        "shop": "yes"
      }
    },
    {
      "type": "node",
      "id": 8178583705,
      "lat": 27.3338346,
      "lon": 88.6146211,
      "tags": {
        "name": "IRCTC Booking Office",
        "shop": "ticket"
      }
    },
    {
      "type": "node",
      "id": 8257875092,
      "lat": 27.3287002,
      "lon": 88.612208,
      "tags": {
        "addr:city": "Gangtok",
        "addr:postcode": "737101",
        "addr:street": "lal bazaar road, Tibet Road",
        "name": "firstcry",
        "organic": "yes",
        "payment:cash": "yes",
        "shop": "baby_goods",
        "website": "http://firstcry.com/"
      }
    },
    {
      "type": "node",
      "id": 8686725401,
      "lat": 27.3234254,
      "lon": 88.6114224,
      "tags": {
        "addr:city": "Gangtok",
        "addr:postcode": "737101",
        "addr:street": "Nam Nang Road",
        "name": "Waikiki Store",
        "opening_hours": "Mo-Su 10:00-19:30",
        "opening_hours:covid19": "same",
        "operator": "Prashant Pradhan",
        "payment:cash": "yes",
        "payment:credit_cards": "yes",
        "phone": "+91 8145303126",
        "shop": "department_store",
        "website": "https://waikikistore.in"
      }
    },
    {
      "type": "node",
      "id": 8848449861,
      "lat": 27.3099189,
      "lon": 88.5684735,
      "tags": {
        "shop": "convenience"
      }
    },
    {
      "type": "node",
      "id": 8848506172,
      "lat": 27.3059452,
      "lon": 88.5682936,
      "tags": {
        "shop": "convenience"
      }
    },
    {
      "type": "node",
      "id": 8848520337,
      "lat": 27.3101742,
      "lon": 88.5687226,
      "tags": {
        "shop": "convenience"
      }
    },
    {
      "type": "node",
      "id": 9775536367,
      "lat": 27.3582652,
      "lon": 88.6172534,
      "tags": {
        "addr:city": "Gangtok",
        "addr:postcode": "737101",
        "addr:street": "Lower Burtuk Road",
        "name": "Hot Wheels Auto Work Shop",
        "opening_hours": "Mo-Su 08:00-22:00",
        "service:vehicle:air_conditioning": "yes",
        "service:vehicle:car_repair": "yes",
        "shop": "car_repair"
      }
    },
    {
      "type": "node",
      "id": 10248411716,
      "lat": 27.3273023,
      "lon": 88.6116807,
      "tags": {
        "shop": "florist"
      }
    },
    {
      "type": "way",
      "id": 696937269,
      "nodes": [
        6545133802,
        6545133801,
        6545133800,
        6545133799,
        6545133802
      ],
      "tags": {
        "building": "yes",
        "name": "Passingdong government fair price shop",
        "shop": "convenience"
      }
    },
    {
      "type": "way",
      "id": 1084683278,
      "nodes": [
        9939574825,
        9939574826,
        9939574827,
        9939574828,
        9939574825
      ],
      "tags": {
        "brand": "Big Bazaar",
        "brand:wikidata": "Q3631008",
        "building": "yes",
        "name": "Big Bazaar",
        "shop": "supermarket"
      }
    },
    {
      "type": "way",
      "id": 1084683281,
      "nodes": [
        9939574840,
        9939574841,
        9939574842,
        9939574843,
        9939574844,
        9939574845,
        9939574840
      ],
      "tags": {
        "building": "yes",
        "shop": "mall"
      }
    },
    {
      "type": "node",
      "id": 9939574826,
      "lat": 27.3218023,
      "lon": 88.6112045
    },
    {
      "type": "node",
      "id": 9939574825,
      "lat": 27.3219515,
      "lon": 88.6112639
    },
    {
      "type": "node",
      "id": 9939574827,
      "lat": 27.3216725,
      "lon": 88.6116173
    },
    {
      "type": "node",
      "id": 9939574828,
      "lat": 27.3218217,
      "lon": 88.6116767
    },
    {
      "type": "node",
      "id": 9939574840,
      "lat": 27.3293096,
      "lon": 88.6128672
    },
    {
      "type": "node",
      "id": 9939574841,
      "lat": 27.3288452,
      "lon": 88.6127577
    },
    {
      "type": "node",
      "id": 9939574842,
      "lat": 27.3288155,
      "lon": 88.6128716
    },
    {
      "type": "node",
      "id": 9939574843,
      "lat": 27.3290238,
      "lon": 88.6130905
    },
    {
      "type": "node",
      "id": 9939574844,
      "lat": 27.3291905,
      "lon": 88.6130995
    },
    {
      "type": "node",
      "id": 9939574845,
      "lat": 27.3292758,
      "lon": 88.6130392
    },
    {
      "type": "node",
      "id": 6545133799,
      "lat": 27.5282507,
      "lon": 88.5140556
    },
    {
      "type": "node",
      "id": 6545133800,
      "lat": 27.5283305,
      "lon": 88.514121
    },
    {
      "type": "node",
      "id": 6545133801,
      "lat": 27.5283001,
      "lon": 88.5141681
    },
    {
      "type": "node",
      "id": 6545133802,
      "lat": 27.5282203,
      "lon": 88.5141028
    }
  ]
}